{"type": "FeatureCollection", "features": [{"type": "Feature", "properties": {"norad_id": 2807, "name": "OPS 7218 (TRANSIT 16)", "group": "nnss", "lat": -82.9584886301151, "lon": -8.90494014790571, "alt_km": 1093.5063959955569, "timestamp": "2025-12-20T22:39:10.895589+00:00", "meta": {"OBJECT_NAME": "OPS 7218 (TRANSIT 16)", "OBJECT_ID": "1967-048A", "EPOCH": "2025-12-20T13:00:34.079040", "MEAN_MOTION": 13.50723861, "ECCENTRICITY": 0.00221456, "INCLINATION": 89.6731, "RA_OF_ASC_NODE": 353.7574, "ARG_OF_PERICENTER": 93.2861, "MEAN_ANOMALY": 31.0798, "EPHEMERIS_TYPE": 0, "CLASSIFICATION_TYPE": "U", "NORAD_CAT_ID": 2807, "ELEMENT_SET_NO": 999, "REV_AT_EPOCH": 88381, "BSTAR": 0.00014696914, "MEAN_MOTION_DOT": 1.05e-06, "MEAN_MOTION_DDOT": 0}, "tle": {"line1": "1 02807U 67048A   25354.54206110  .00000105  00000+0  14697-3 0  9995", "line2": "2 02807  89.6731 353.7574 0022145  93.2861  31.0798 13.50723861883812"}}, "geometry": {"type": "Point", "coordinates": [-8.90494014790571, -82.9584886301151]}}, {"type": "Feature", "properties": {"norad_id": 2965, "name": "OPS 4947 (TRANSIT 17)", "group": "nnss", "lat": 61.795027583658786, "lon": 25.211678893501116, "alt_km": 1083.1393395679997, "timestamp": "2025-12-20T22:39:10.895611+00:00", "meta": {"OBJECT_NAME": "OPS 4947 (TRANSIT 17)", "OBJECT_ID": "1967-092A", "EPOCH": "2025-12-20T03:07:42.632256", "MEAN_MOTION": 13.53455414, "ECCENTRICITY": 0.00466956, "INCLINATION": 89.2488, "RA_OF_ASC_NODE": 23.8719, "ARG_OF_PERICENTER": 212.481, "MEAN_ANOMALY": 208.1838, "EPHEMERIS_TYPE": 0, "CLASSIFICATION_TYPE": "U", "NORAD_CAT_ID": 2965, "ELEMENT_SET_NO": 999, "REV_AT_EPOCH": 87197, "BSTAR": 0.00019201817, "MEAN_MOTION_DOT": 1.41e-06, "MEAN_MOTION_DDOT": 0}, "tle": {"line1": "1 02965U 67092A   25354.13035454  .00000141  00000+0  19202-3 0  9992", "line2": "2 02965  89.2488  23.8719 0046695 212.4810 208.1838 13.53455414871978"}}, "geometry": {"type": "Point", "coordinates": [25.211678893501116, 61.795027583658786]}}, {"type": "Feature", "properties": {"norad_id": 3133, "name": "OPS 7034 (TRANSIT 18)", "group": "nnss", "lat": 24.126605387793752, "lon": 93.67486474954868, "alt_km": 1011.2508666269587, "timestamp": "2025-12-20T22:39:10.895622+00:00", "meta": {"OBJECT_NAME": "OPS 7034 (TRANSIT 18)", "OBJECT_ID": "1968-012A", "EPOCH": "2025-12-20T06:27:21.173184", "MEAN_MOTION": 13.5156736, "ECCENTRICITY": 0.0074579, "INCLINATION": 90.0284, "RA_OF_ASC_NODE": 273.6602, "ARG_OF_PERICENTER": 147.4281, "MEAN_ANOMALY": 326.4183, "EPHEMERIS_TYPE": 0, "CLASSIFICATION_TYPE": "U", "NORAD_CAT_ID": 3133, "ELEMENT_SET_NO": 999, "REV_AT_EPOCH": 57020, "BSTAR": 0.000156, "MEAN_MOTION_DOT": 1.13e-06, "MEAN_MOTION_DDOT": 0}, "tle": {"line1": "1 03133U 68012A   25354.26899506  .00000113  00000+0  15600-3 0  9990", "line2": "2 03133  90.0284 273.6602 0074579 147.4281 326.4183 13.51567360570208"}}, "geometry": {"type": "Point", "coordinates": [93.67486474954868, 24.126605387793752]}}, {"type": "Feature", "properties": {"norad_id": 4507, "name": "NNSS 19 (TRANSIT 19)", "group": "nnss", "lat": 61.237281501948594, "lon": 54.54876230245338, "alt_km": 1171.542902081067, "timestamp": "2025-12-20T22:39:10.895633+00:00", "meta": {"OBJECT_NAME": "NNSS 19 (TRANSIT 19)", "OBJECT_ID": "1970-067A", "EPOCH": "2025-12-20T14:56:41.153856", "MEAN_MOTION": 13.51316588, "ECCENTRICITY": 0.01702387, "INCLINATION": 90.0051, "RA_OF_ASC_NODE": 234.5393, "ARG_OF_PERICENTER": 270.3112, "MEAN_ANOMALY": 87.8534, "EPHEMERIS_TYPE": 0, "CLASSIFICATION_TYPE": "U", "NORAD_CAT_ID": 4507, "ELEMENT_SET_NO": 999, "REV_AT_EPOCH": 72328, "BSTAR": 0.00013507969, "MEAN_MOTION_DOT": 1.04e-06, "MEAN_MOTION_DDOT": 0}, "tle": {"line1": "1 04507U 70067A   25354.62269854  .00000104  00000+0  13508-3 0  9991", "line2": "2 04507  90.0051 234.5393 0170238 270.3112  87.8534 13.51316588723287"}}, "geometry": {"type": "Point", "coordinates": [54.54876230245338, 61.237281501948594]}}, {"type": "Feature", "properties": {"norad_id": 6909, "name": "NNSS 20 (TRANSIT 20)", "group": "nnss", "lat": 66.088540807178, "lon": -104.74424665545578, "alt_km": 875.2194022183485, "timestamp": "2025-12-20T22:39:10.895644+00:00", "meta": {"OBJECT_NAME": "NNSS 20 (TRANSIT 20)", "OBJECT_ID": "1973-081A", "EPOCH": "2025-12-20T06:34:53.194656", "MEAN_MOTION": 13.71437993, "ECCENTRICITY": 0.01564201, "INCLINATION": 89.8562, "RA_OF_ASC_NODE": 254.9413, "ARG_OF_PERICENTER": 56.0029, "MEAN_ANOMALY": 305.5882, "EPHEMERIS_TYPE": 0, "CLASSIFICATION_TYPE": "U", "NORAD_CAT_ID": 6909, "ELEMENT_SET_NO": 999, "REV_AT_EPOCH": 80464, "BSTAR": 0.00024104976, "MEAN_MOTION_DOT": 2.48e-06, "MEAN_MOTION_DDOT": 0}, "tle": {"line1": "1 06909U 73081A   25354.27422679  .00000248  00000+0  24105-3 0  9999", "line2": "2 06909  89.8562 254.9413 0156420  56.0029 305.5882 13.71437993804642"}}, "geometry": {"type": "Point", "coordinates": [-104.74424665545578, 66.088540807178]}}, {"type": "Feature", "properties": {"norad_id": 10457, "name": "TRANSAT", "group": "nnss", "lat": 54.390193443945975, "lon": 78.79843594380873, "alt_km": 1078.1638120114685, "timestamp": "2025-12-20T22:39:10.895654+00:00", "meta": {"OBJECT_NAME": "TRANSAT", "OBJECT_ID": "1977-106A", "EPOCH": "2025-12-20T04:51:30.137760", "MEAN_MOTION": 13.48944672, "ECCENTRICITY": 0.00261, "INCLINATION": 89.648, "RA_OF_ASC_NODE": 78.3329, "ARG_OF_PERICENTER": 168.1289, "MEAN_ANOMALY": 248.1407, "EPHEMERIS_TYPE": 0, "CLASSIFICATION_TYPE": "U", "NORAD_CAT_ID": 10457, "ELEMENT_SET_NO": 999, "REV_AT_EPOCH": 36844, "BSTAR": 0.00011685506, "MEAN_MOTION_DOT": 8.4e-07, "MEAN_MOTION_DDOT": 0}, "tle": {"line1": "1 10457U 77106A   25354.20243215  .00000084  00000+0  11686-3 0  9992", "line2": "2 10457  89.6480  78.3329 0026100 168.1289 248.1407 13.48944672368449"}}, "geometry": {"type": "Point", "coordinates": [78.79843594380873, 54.390193443945975]}}, {"type": "Feature", "properties": {"norad_id": 12458, "name": "NOVA 1", "group": "nnss", "lat": -80.79331294844175, "lon": 90.36061426692216, "alt_km": 1191.221227049824, "timestamp": "2025-12-20T22:39:10.895664+00:00", "meta": {"OBJECT_NAME": "NOVA 1", "OBJECT_ID": "1981-044A", "EPOCH": "2025-12-20T12:13:47.959968", "MEAN_MOTION": 13.23279081, "ECCENTRICITY": 0.00158545, "INCLINATION": 89.8528, "RA_OF_ASC_NODE": 91.2755, "ARG_OF_PERICENTER": 84.9093, "MEAN_ANOMALY": 286.6747, "EPHEMERIS_TYPE": 0, "CLASSIFICATION_TYPE": "U", "NORAD_CAT_ID": 12458, "ELEMENT_SET_NO": 999, "REV_AT_EPOCH": 15289, "BSTAR": 7.1367628e-05, "MEAN_MOTION_DOT": 3.9e-07, "MEAN_MOTION_DDOT": 0}, "tle": {"line1": "1 12458U 81044A   25354.50958287  .00000039  00000+0  71368-4 0  9990", "line2": "2 12458  89.8528  91.2755 0015854  84.9093 286.6747 13.23279081152898"}}, "geometry": {"type": "Point", "coordinates": [90.36061426692216, -80.79331294844175]}}, {"type": "Feature", "properties": {"norad_id": 15362, "name": "NOVA 3", "group": "nnss", "lat": 34.95021309931891, "lon": -99.28326888340109, "alt_km": 1192.4925354781499, "timestamp": "2025-12-20T22:39:10.895674+00:00", "meta": {"OBJECT_NAME": "NOVA 3", "OBJECT_ID": "1984-110A", "EPOCH": "2025-12-20T12:54:10.718784", "MEAN_MOTION": 13.23045457, "ECCENTRICITY": 0.00299901, "INCLINATION": 90.1222, "RA_OF_ASC_NODE": 80.6265, "ARG_OF_PERICENTER": 309.5583, "MEAN_ANOMALY": 61.6582, "EPHEMERIS_TYPE": 0, "CLASSIFICATION_TYPE": "U", "NORAD_CAT_ID": 15362, "ELEMENT_SET_NO": 999, "REV_AT_EPOCH": 98802, "BSTAR": 0.00010787093, "MEAN_MOTION_DOT": 5.4e-07, "MEAN_MOTION_DDOT": 0}, "tle": {"line1": "1 15362U 84110A   25354.53762406  .00000054  00000+0  10787-3 0  9997", "line2": "2 15362  90.1222  80.6265 0029990 309.5583  61.6582 13.23045457988023"}}, "geometry": {"type": "Point", "coordinates": [-99.28326888340109, 34.95021309931891]}}, {"type": "Feature", "properties": {"norad_id": 15935, "name": "OSCAR 30", "group": "nnss", "lat": -69.98840445552233, "lon": -80.4733681577848, "alt_km": 1256.645585501742, "timestamp": "2025-12-20T22:39:10.895684+00:00", "meta": {"OBJECT_NAME": "OSCAR 30", "OBJECT_ID": "1985-066A", "EPOCH": "2025-12-20T07:17:41.512416", "MEAN_MOTION": 13.36079379, "ECCENTRICITY": 0.01691863, "INCLINATION": 90.1655, "RA_OF_ASC_NODE": 99.9709, "ARG_OF_PERICENTER": 62.7881, "MEAN_ANOMALY": 351.3123, "EPHEMERIS_TYPE": 0, "CLASSIFICATION_TYPE": "U", "NORAD_CAT_ID": 15935, "ELEMENT_SET_NO": 999, "REV_AT_EPOCH": 96554, "BSTAR": 0.00010294684, "MEAN_MOTION_DOT": 6.7e-07, "MEAN_MOTION_DDOT": 0}, "tle": {"line1": "1 15935U 85066A   25354.30395269  .00000067  00000+0  10295-3 0  9996", "line2": "2 15935  90.1655  99.9709 0169186  62.7881 351.3123 13.36079379965542"}}, "geometry": {"type": "Point", "coordinates": [-80.4733681577848, -69.98840445552233]}}, {"type": "Feature", "properties": {"norad_id": 15936, "name": "OSCAR 24", "group": "nnss", "lat": -40.568089616134664, "lon": 92.60393671039203, "alt_km": 1168.3197397930362, "timestamp": "2025-12-20T22:39:10.895693+00:00", "meta": {"OBJECT_NAME": "OSCAR 24", "OBJECT_ID": "1985-066B", "EPOCH": "2025-12-20T13:55:25.049856", "MEAN_MOTION": 13.35936778, "ECCENTRICITY": 0.01702986, "INCLINATION": 90.1791, "RA_OF_ASC_NODE": 92.4441, "ARG_OF_PERICENTER": 68.4534, "MEAN_ANOMALY": 304.6719, "EPHEMERIS_TYPE": 0, "CLASSIFICATION_TYPE": "U", "NORAD_CAT_ID": 15936, "ELEMENT_SET_NO": 999, "REV_AT_EPOCH": 96748, "BSTAR": 9.6657407e-05, "MEAN_MOTION_DOT": 6.4e-07, "MEAN_MOTION_DDOT": 0}, "tle": {"line1": "1 15936U 85066B   25354.58015104  .00000064  00000+0  96657-4 0  9998", "line2": "2 15936  90.1791  92.4441 0170298  68.4534 304.6719 13.35936778967480"}}, "geometry": {"type": "Point", "coordinates": [92.60393671039203, -40.568089616134664]}}]}